ION SCV-004             
1 50993U 22002K   26068.68892644  .00006538  00000+0  23198-3 0  9998
2 50993  97.2961 128.2294 0007216   1.6783 358.4480 15.29369331230088
STARLINK-31598          
1 59263U 24050K   26068.62846355 -.00000080  00000+0  94387-5 0  9991
2 59263  53.1619 181.6524 0001335  82.4699 277.6453 15.30183586110533
